GLOBALSTAR M068         
1 32266U 07048D   25051.42994589 -.00000055  00000+0  27025-3 0  9990
2 32266  51.9891 298.1736 0000231 190.4472 340.4975 12.62815737802805
GLOBALSTAR M079         
1 37188U 10054A   25051.54887148 -.00000083  00000+0  11862-3 0  9997
2 37188  52.0034 134.8533 0000759  94.2393  11.9019 12.62271078661720
GLOBALSTAR M074         
1 37189U 10054B   25051.47580859 -.00000070  00000+0  18785-3 0  9996
2 37189  52.0011 134.4171 0000857 122.1104 251.0700 12.62266590662324
GLOBALSTAR M076         
1 37190U 10054C   25051.59820417 -.00000087  00000+0  96303-4 0  9999
2 37190  52.0025 134.2015 0001025 106.9710 344.9279 12.62277862662054
GLOBALSTAR M077         
1 37191U 10054D   25051.40975270 -.00000098  00000+0  30307-4 0  9992
2 37191  52.0067  91.6009 0000496 119.4782 253.5759 12.62271100662405
GLOBALSTAR M075         
1 37192U 10054E   25051.59411223 -.00000078  00000+0  14546-3 0  9990
2 37192  51.9941 176.5350 0000883 110.6362 262.8176 12.62273158661123
GLOBALSTAR M073         
1 37193U 10054F   25051.29237473 -.00000093  00000+0  57361-4 0  9991
2 37193  52.0053  91.1865 0000583 108.3591 331.2366 12.62263517663074
GLOBALSTAR M083         
1 37739U 11033A   25051.47754008 -.00000098  00000+0  30614-4 0  9990
2 37739  51.9871  39.5097 0000327  62.1195  80.9957 12.62264443632116
GLOBALSTAR M088         
1 37740U 11033B   25051.45735012 -.00000073  00000+0  17421-3 0  9997
2 37740  51.9747 305.1652 0000690  63.3707 108.1065 12.62263115627655
GLOBALSTAR M091         
1 37741U 11033C   25051.07248608 -.00000085  00000+0  10239-3 0  9999
2 37741  51.9984 269.6845 0000795  60.6322 100.2521 12.62264947628392
GLOBALSTAR M085         
1 37742U 11033D   25051.42371390 -.00000080  00000+0  13464-3 0  9992
2 37742  51.9848 219.7541 0000867  81.3702 296.3001 12.62265550628956
GLOBALSTAR M081         
1 37743U 11033E   25051.62113471 -.00000074  00000+0  16508-3 0  9994
2 37743  51.9935 221.8666 0001067  81.9917 354.0286 12.62260996629129
GLOBALSTAR M089         
1 37744U 11033F   25051.64715803 -.00000086  00000+0  99487-4 0  9995
2 37744  51.9921 176.0377 0001080 112.7308 261.0280 12.62266332629971
GLOBALSTAR M084         
1 38040U 11080A   25051.37345086 -.00000097  00000+0  36253-4 0  9993
2 38040  52.0018  44.0947 0000602 115.7253  33.9997 12.62262307607917
GLOBALSTAR M080         
1 38041U 11080B   25051.42795375 -.00000095  00000+0  50697-4 0  9996
2 38041  52.0070  45.4980 0000827 105.7997  49.6894 12.62277197608049
GLOBALSTAR M082         
1 38042U 11080C   25051.60274834 -.00000092  00000+0  63057-4 0  9990
2 38042  52.0104   0.3976 0000371 358.5595 173.7250 12.62273101608775
GLOBALSTAR M092         
1 38043U 11080D   25051.56783741 -.00000105  00000+0 -60527-5 0  9994
2 38043  52.0078  90.8742 0000512 130.2188   3.3617 12.62273122607228
GLOBALSTAR M090         
1 38044U 11080E   25051.55001590 -.00000087  00000+0  92407-4 0  9998
2 38044  51.9913 354.5182 0000451  46.8982 124.6214 12.62266863608886
GLOBALSTAR M086         
1 38045U 11080F   25051.33807887 -.00000081  00000+0  12631-3 0  9992
2 38045  51.9926 355.7053 0001361  63.5939 104.8085 12.62266828608809
GLOBALSTAR M097         
1 39072U 13005A   25051.32771006 -.00000076  00000+0  15573-3 0  9996
2 39072  52.0033 270.1687 0000978  67.3300 292.7670 12.62270276556059
GLOBALSTAR M093         
1 39073U 13005B   25051.30074675 -.00000081  00000+0  12573-3 0  9996
2 39073  51.9793 263.7364 0000979  68.3235 291.7736 12.62261786556003
GLOBALSTAR M094         
1 39074U 13005C   25051.61786823 -.00000088  00000+0  85708-4 0  9994
2 39074  51.9947 177.0354 0000882  85.7618 274.3349 12.62268366557652
GLOBALSTAR M096         
1 39075U 13005D   25051.63111976 -.00000085  00000+0  10727-3 0  9993
2 39075  52.0050 225.4200 0000927  74.2931 285.8038 12.62268482556570
GLOBALSTAR M078         
1 39076U 13005E   25051.44563207 -.00000164  00000+0 -33881-3 0  9996
2 39076  51.9890 310.6506 0000530 320.7676  39.3152 12.62271236555177
GLOBALSTAR M095         
1 39077U 13005F   25051.39337219 -.00000073  00000+0  17078-3 0  9991
2 39077  51.9813 308.0688 0000733  22.9997 337.0902 12.62266674555022
GLOBALSTAR M087         
1 52888U 22064A   25051.42407355 -.00000097  00000+0  35766-4 0  9995
2 52888  51.9786  89.3779 0000311 105.8746 254.2155 12.62268783130292
